[
    {
        "Altitude(m)": 714169.4612057158,
        "Argument of Periapsis(deg)": 0.009112096949301655,
        "Eccentricity": 0.0,
        "Inclination(deg)": 45.0,
        "Latitude(deg)": -36.17108545701361,
        "Longitude(deg)": 102.73536770794817,
        "Mean Anomaly(deg)": -56.2279266820153,
        "RAAN(deg)": 249.99139844683341,
        "Satellite Name": "Constellation 1 1118",
        "Satellite Number": 1118,
        "Semi-Major Axis(m)": 7083131.272910544,
        "Time(s)": 152
    },
    {
        "Altitude(m)": 714157.3894838631,
        "Argument of Periapsis(deg)": 0.009172044955547059,
        "Eccentricity": 0.0,
        "Inclination(deg)": 45.0,
        "Latitude(deg)": -36.141568495755564,
        "Longitude(deg)": 102.79670082053603,
        "Mean Anomaly(deg)": -56.16722554176544,
        "RAAN(deg)": 249.99134185766786,
        "Satellite Name": "Constellation 1 1118",
        "Satellite Number": 1118,
        "Semi-Major Axis(m)": 7083131.272910544,
        "Time(s)": 153
    },
    {
        "Altitude(m)": 714145.3049526624,
        "Argument of Periapsis(deg)": 0.009231992961792466,
        "Eccentricity": 0.0,
        "Inclination(deg)": 45.0,
        "Latitude(deg)": -36.11201561633213,
        "Longitude(deg)": 102.85798504260431,
        "Mean Anomaly(deg)": -56.10652440151551,
        "RAAN(deg)": 249.9912852685023,
        "Satellite Name": "Constellation 1 1118",
        "Satellite Number": 1118,
        "Semi-Major Axis(m)": 7083131.272910544,
        "Time(s)": 154
    },
    {
        "Altitude(m)": 714133.2076556436,
        "Argument of Periapsis(deg)": 0.009291940968037872,
        "Eccentricity": 0.0,
        "Inclination(deg)": 45.0,
        "Latitude(deg)": -36.08242688329837,
        "Longitude(deg)": 102.91922040458638,
        "Mean Anomaly(deg)": -56.045823261265646,
        "RAAN(deg)": 249.99122867933676,
        "Satellite Name": "Constellation 1 1118",
        "Satellite Number": 1118,
        "Semi-Major Axis(m)": 7083131.272910544,
        "Time(s)": 155
    },
    {
        "Altitude(m)": 714121.0976363837,
        "Argument of Periapsis(deg)": 0.009351888974283276,
        "Eccentricity": 0.0,
        "Inclination(deg)": 45.0,
        "Latitude(deg)": -36.05280236115404,
        "Longitude(deg)": 102.9804067690652,
        "Mean Anomaly(deg)": -55.985122121015685,
        "RAAN(deg)": 249.9911720901712,
        "Satellite Name": "Constellation 1 1118",
        "Satellite Number": 1118,
        "Semi-Major Axis(m)": 7083131.272910544,
        "Time(s)": 156
    },
    {
        "Altitude(m)": 714108.9749385024,
        "Argument of Periapsis(deg)": 0.00941183698052868,
        "Eccentricity": 0.0,
        "Inclination(deg)": 45.0,
        "Latitude(deg)": -36.02314211434389,
        "Longitude(deg)": 103.04154450315829,
        "Mean Anomaly(deg)": -55.92442098076585,
        "RAAN(deg)": 249.99111550100565,
        "Satellite Name": "Constellation 1 1118",
        "Satellite Number": 1118,
        "Semi-Major Axis(m)": 7083131.272910544,
        "Time(s)": 157
    },
    {
        "Altitude(m)": 714096.8396056662,
        "Argument of Periapsis(deg)": 0.009471784986774088,
        "Eccentricity": 0.0,
        "Inclination(deg)": 45.0,
        "Latitude(deg)": -35.99344620725683,
        "Longitude(deg)": 103.10263346993642,
        "Mean Anomaly(deg)": -55.86371984051594,
        "RAAN(deg)": 249.99105891184,
        "Satellite Name": "Constellation 1 1118",
        "Satellite Number": 1118,
        "Semi-Major Axis(m)": 7083131.272910544,
        "Time(s)": 158
    },
    {
        "Altitude(m)": 714084.6916815711,
        "Argument of Periapsis(deg)": 0.009531732993019492,
        "Eccentricity": 0.0,
        "Inclination(deg)": 45.0,
        "Latitude(deg)": -35.96371470422621,
        "Longitude(deg)": 103.16367370080924,
        "Mean Anomaly(deg)": -55.803018700266094,
        "RAAN(deg)": 249.99100232267446,
        "Satellite Name": "Constellation 1 1118",
        "Satellite Number": 1118,
        "Semi-Major Axis(m)": 7083131.272910544,
        "Time(s)": 159
    },
    {
        "Altitude(m)": 714072.5312099612,
        "Argument of Periapsis(deg)": 0.009591680999264898,
        "Eccentricity": 0.0,
        "Inclination(deg)": 45.0,
        "Latitude(deg)": -35.933947669529104,
        "Longitude(deg)": 103.22466522742698,
        "Mean Anomaly(deg)": -55.74231756001613,
        "RAAN(deg)": 249.9909457335089,
        "Satellite Name": "Constellation 1 1118",
        "Satellite Number": 1118,
        "Semi-Major Axis(m)": 7083131.272910544,
        "Time(s)": 160
    },
    {
        "Altitude(m)": 714060.3582346147,
        "Argument of Periapsis(deg)": 0.009651629005510304,
        "Eccentricity": 0.0,
        "Inclination(deg)": 45.0,
        "Latitude(deg)": -35.904145167386574,
        "Longitude(deg)": 103.28560808167924,
        "Mean Anomaly(deg)": -55.6816164197662,
        "RAAN(deg)": 249.99088914434336,
        "Satellite Name": "Constellation 1 1118",
        "Satellite Number": 1118,
        "Semi-Major Axis(m)": 7083131.272910544,
        "Time(s)": 161
    },
    {
        "Altitude(m)": 714048.1727993593,
        "Argument of Periapsis(deg)": 0.00971157701175571,
        "Eccentricity": 0.0,
        "Inclination(deg)": 45.0,
        "Latitude(deg)": -35.87430726196304,
        "Longitude(deg)": 103.34650229569371,
        "Mean Anomaly(deg)": -55.62091527951634,
        "RAAN(deg)": 249.99083255517778,
        "Satellite Name": "Constellation 1 1118",
        "Satellite Number": 1118,
        "Semi-Major Axis(m)": 7083131.272910544,
        "Time(s)": 162
    },
    {
        "Altitude(m)": 714035.9749480535,
        "Argument of Periapsis(deg)": 0.009771525018001118,
        "Eccentricity": 0.0,
        "Inclination(deg)": 45.0,
        "Latitude(deg)": -35.844434017366105,
        "Longitude(deg)": 103.40734773373819,
        "Mean Anomaly(deg)": -55.560214139266456,
        "RAAN(deg)": 249.99077596601217,
        "Satellite Name": "Constellation 1 1118",
        "Satellite Number": 1118,
        "Semi-Major Axis(m)": 7083131.272910544,
        "Time(s)": 163
    },
    {
        "Altitude(m)": 714023.7647246066,
        "Argument of Periapsis(deg)": 0.00983147302424652,
        "Eccentricity": 0.0,
        "Inclination(deg)": 45.0,
        "Latitude(deg)": -35.814525497646464,
        "Longitude(deg)": 103.46814476460663,
        "Mean Anomaly(deg)": -55.49951299901648,
        "RAAN(deg)": 249.9907193768466,
        "Satellite Name": "Constellation 1 1118",
        "Satellite Number": 1118,
        "Semi-Major Axis(m)": 7083131.272910544,
        "Time(s)": 164
    },
    {
        "Altitude(m)": 714011.5421729541,
        "Argument of Periapsis(deg)": 0.009891421030491928,
        "Eccentricity": 0.0,
        "Inclination(deg)": 45.0,
        "Latitude(deg)": -35.78458176679766,
        "Longitude(deg)": 103.5288932530362,
        "Mean Anomaly(deg)": -55.43881185876663,
        "RAAN(deg)": 249.99066278768106,
        "Satellite Name": "Constellation 1 1118",
        "Satellite Number": 1118,
        "Semi-Major Axis(m)": 7083131.272910544,
        "Time(s)": 165
    },
    {
        "Altitude(m)": 713999.307337082,
        "Argument of Periapsis(deg)": 0.009951369036737332,
        "Eccentricity": 0.0,
        "Inclination(deg)": 45.0,
        "Latitude(deg)": -35.75460288875565,
        "Longitude(deg)": 103.58959323209429,
        "Mean Anomaly(deg)": -55.37811071851679,
        "RAAN(deg)": 249.9906061985155,
        "Satellite Name": "Constellation 1 1118",
        "Satellite Number": 1118,
        "Semi-Major Axis(m)": 7083131.272910544,
        "Time(s)": 166
    },
    {
        "Altitude(m)": 713987.0602610111,
        "Argument of Periapsis(deg)": 0.010011317042982738,
        "Eccentricity": 0.0,
        "Inclination(deg)": 45.0,
        "Latitude(deg)": -35.72458892739878,
        "Longitude(deg)": 103.65024473507992,
        "Mean Anomaly(deg)": -55.317409578266826,
        "RAAN(deg)": 249.99054960934993,
        "Satellite Name": "Constellation 1 1118",
        "Satellite Number": 1118,
        "Semi-Major Axis(m)": 7083131.272910544,
        "Time(s)": 167
    },
    {
        "Altitude(m)": 713974.8009887988,
        "Argument of Periapsis(deg)": 0.010071265049228144,
        "Eccentricity": 0.0,
        "Inclination(deg)": 45.0,
        "Latitude(deg)": -35.6945399465475,
        "Longitude(deg)": 103.71084779552214,
        "Mean Anomaly(deg)": -55.25670843801694,
        "RAAN(deg)": 249.99049302018432,
        "Satellite Name": "Constellation 1 1118",
        "Satellite Number": 1118,
        "Semi-Major Axis(m)": 7083131.272910544,
        "Time(s)": 168
    },
    {
        "Altitude(m)": 713962.5295645479,
        "Argument of Periapsis(deg)": 0.01013121305547355,
        "Eccentricity": 0.0,
        "Inclination(deg)": 45.0,
        "Latitude(deg)": -35.66445600996417,
        "Longitude(deg)": 103.77140244717944,
        "Mean Anomaly(deg)": -55.19600729776708,
        "RAAN(deg)": 249.99043643101876,
        "Satellite Name": "Constellation 1 1118",
        "Satellite Number": 1118,
        "Semi-Major Axis(m)": 7083131.272910544,
        "Time(s)": 169
    },
    {
        "Altitude(m)": 713950.2460324006,
        "Argument of Periapsis(deg)": 0.010191161061718957,
        "Eccentricity": 0.0,
        "Inclination(deg)": 45.0,
        "Latitude(deg)": -35.6343371813527,
        "Longitude(deg)": 103.83190872403799,
        "Mean Anomaly(deg)": -55.13530615751715,
        "RAAN(deg)": 249.9903798418532,
        "Satellite Name": "Constellation 1 1118",
        "Satellite Number": 1118,
        "Semi-Major Axis(m)": 7083131.272910544,
        "Time(s)": 170
    }
]